PRETTY                  
1 58023U 23155H   26068.79428157  .00010441  00000+0  45568-3 0  9999
2 58023  97.5727 149.5557 0002106  60.6464 299.4982 15.22332126133229
TRANSPORTER-13 OBJECT M 
1 63221U 25052M   26068.70428271  .00005606  00000+0  25482-3 0  9991
2 63221  97.4005 322.6064 0004913 116.6212 243.5528 15.21138155 54718
