[{"OBJECT_NAME":"PRETTY","OBJECT_ID":"2023-155H","EPOCH":"2026-03-09T19:03:45.928512","MEAN_MOTION":15.22332126,"ECCENTRICITY":0.00021064,"INCLINATION":97.5727,"RA_OF_ASC_NODE":149.5557,"ARG_OF_PERICENTER":60.6464,"MEAN_ANOMALY":299.4982,"EPHEMERIS_TYPE":0,"CLASSIFICATION_TYPE":"U","NORAD_CAT_ID":58023,"ELEMENT_SET_NO":999,"REV_AT_EPOCH":13322,"BSTAR":0.00045567627,"MEAN_MOTION_DOT":0.00010441,"MEAN_MOTION_DDOT":0},{"OBJECT_NAME":"TRANSPORTER-13 OBJECT M","OBJECT_ID":"2025-052M","EPOCH":"2026-03-09T16:54:10.026144","MEAN_MOTION":15.21138155,"ECCENTRICITY":0.00049134,"INCLINATION":97.4005,"RA_OF_ASC_NODE":322.6064,"ARG_OF_PERICENTER":116.6212,"MEAN_ANOMALY":243.5528,"EPHEMERIS_TYPE":0,"CLASSIFICATION_TYPE":"U","NORAD_CAT_ID":63221,"ELEMENT_SET_NO":999,"REV_AT_EPOCH":5471,"BSTAR":0.00025482264,"MEAN_MOTION_DOT":5.606e-5,"MEAN_MOTION_DDOT":0}]
